[Satellite]
VERSION=1.1
NAME=CZ-6A DEB
NICKNAME=CZ-6A DEB
TLE1=1 54575U 22151MB  22341.19624626  .00003092  00000+0  80031-3 0  9993
TLE2=2 54575  98.7377 346.5842 0175334 230.9773 127.5695 14.41846768  2922
STATUS=0
